     2.100          NAVIGATION                              RINEX VERSION / TYPE
fic2rin                                 08/08/2014 00:17:32 PGM / RUN BY / DATE
                                                            END OF HEADER
27 14  8  7 13 59 44.0  .405870378017D-05  .329691829393D-11  .000000000000D+00
     .170000000000D+02 -.108062500000D+03  .432625163432D-08  .446366850251D+00
    -.559724867344D-05  .142547034193D-02  .899471342564D-05  .515368343925D+04
     .395984000000D+06  .745058059692D-08  .227870347962D+01 -.186264514923D-07
     .964241823788D+00  .204156250000D+03  .312980510632D+00 -.798890419850D-08
    -.182150444440D-09  .100000000000D+01  .180400000000D+04  .000000000000D+00
     .240000000000D+01  .000000000000D+00  .186264514923D-08  .170000000000D+02
     .388806000000D+06  .400000000000D+01
 1 14  8  7 14  0  0.0  .191819854081D-04  .682121026330D-12  .000000000000D+00
     .102000000000D+03  .934375000000D+01  .444447084434D-08 -.162201008392D+01
     .536441802979D-06  .335282832384D-02  .937283039093D-05  .515367455292D+04
     .396000000000D+06 -.558793544769D-07 -.294936504828D+01 -.745058059692D-07
     .961521106299D+00  .201062500000D+03  .364562811927D+00 -.788247119371D-08
     .464662212189D-09  .100000000000D+01  .180400000000D+04  .000000000000D+00
     .240000000000D+01  .000000000000D+00  .558793544769D-08  .102000000000D+03
     .388806000000D+06  .400000000000D+01
 2 14  8  7 14  0  0.0  .511210411787D-03  .216004991671D-11  .000000000000D+00
     .420000000000D+02  .101562500000D+02  .510878422994D-08 -.950602191505D+00
     .560656189919D-06  .136775322026D-01  .927038490772D-05  .515364905548D+04
     .396000000000D+06  .346451997757D-06 -.298053570419D+01  .249594449997D-06
     .940079810898D+00  .191406250000D+03 -.240012322395D+01 -.830070290045D-08
     .432518016111D-09  .100000000000D+01  .180400000000D+04  .000000000000D+00
     .240000000000D+01  .000000000000D+00 -.200234353542D-07  .420000000000D+02
     .388806000000D+06  .400000000000D+01
 3 14  8  7 14  0  0.0  .400785822421D-03  .500222085975D-11  .000000000000D+00
     .760000000000D+02 -.101500000000D+03  .502056626959D-08 -.931836742969D+00
    -.516138970852D-05  .173234721879D-01  .795908272266D-05  .515382506561D+04
     .396000000000D+06 -.245869159698D-06  .212757094160D+01  .257045030594D-06
     .939138554776D+00  .215312500000D+03  .141262016299D+01 -.859678666210D-08
    -.217866217860D-09  .100000000000D+01  .180400000000D+04  .000000000000D+00
     .340000000000D+01  .630000000000D+02 -.465661287308D-08  .760000000000D+02
     .388806000000D+06  .400000000000D+01
 4 14  8  7 14  0  0.0  .717351213098D-05 -.113686837722D-12  .000000000000D+00
     .170000000000D+02  .111875000000D+02  .496734976720D-08  .313922091228D+01
     .560656189919D-06  .108700070996D-01  .914558768272D-05  .515197497368D+04
     .396000000000D+06  .838190317154D-07 -.296469665357D+01 -.484287738800D-07
     .939085181673D+00  .190843750000D+03  .106096822485D+01 -.803569186168D-08
     .511449875369D-09  .100000000000D+01  .180400000000D+04  .000000000000D+00
     .240000000000D+01  .000000000000D+00 -.651925802231D-08  .170000000000D+02
     .388806000000D+06  .400000000000D+01
 5 14  8  7 14  0  0.0 -.351441092789D-03  .341060513165D-11  .000000000000D+00
     .520000000000D+02 -.665625000000D+01  .515700052406D-08  .143731274555D+01
    -.217929482460D-06  .370095588733D-02  .593066215515D-05  .515364338112D+04
     .396000000000D+06 -.372529029846D-07 -.191224706214D+01  .279396772385D-07
     .946730637325D+00  .258625000000D+03  .307526845659D+00 -.832677541505D-08
    -.220723479733D-09  .100000000000D+01  .180400000000D+04  .000000000000D+00
     .240000000000D+01  .000000000000D+00 -.102445483208D-07  .520000000000D+02
     .388806000000D+06  .400000000000D+01
 6 14  8  7 14  0  0.0 -.342959538102D-05 -.147792889038D-11  .000000000000D+00
     .780000000000D+02  .700000000000D+01  .457161899771D-08  .126840090768D+01
     .292435288429D-06  .434550805949D-03  .937283039093D-05  .515357538986D+04
     .396000000000D+06  .465661287308D-07 -.295792935253D+01  .596046447754D-07
     .961450641924D+00  .200906250000D+03  .219977002889D+01 -.799319009131D-08
     .481448625696D-09  .100000000000D+01  .180400000000D+04  .000000000000D+00
     .240000000000D+01  .000000000000D+00  .465661287308D-08  .780000000000D+02
     .388806000000D+06  .400000000000D+01
 7 14  8  7 14  0  0.0  .377458520234D-03  .432009983342D-11  .000000000000D+00
     .830000000000D+02  .114343750000D+03  .429696470011D-08 -.220007604648D+01
     .572577118874D-05  .775634555612D-02  .618956983089D-05  .515361890030D+04
     .396000000000D+06  .484287738800D-07  .210853020406D+00 -.102445483208D-06
     .973224004743D+00  .270593750000D+03 -.281269670754D+01 -.799426156451D-08
     .352871841386D-09  .100000000000D+01  .180400000000D+04  .000000000000D+00
     .240000000000D+01  .000000000000D+00 -.107102096081D-07  .830000000000D+02
     .388806000000D+06  .400000000000D+01
 8 14  8  7 14  0  0.0  .151158310473D-04  .227373675443D-12  .000000000000D+00
     .600000000000D+01  .110562500000D+03  .381694470535D-08 -.254585209954D+01
     .554881989956D-05  .140817698557D-01  .571832060814D-05  .515334615707D+04
     .396000000000D+06 -.223517417908D-07  .311837307447D+00 -.230967998505D-06
     .996564502820D+00  .293312500000D+03 -.275661070029D+01 -.771246411223D-08
     .380015829185D-09  .100000000000D+01  .180400000000D+04  .000000000000D+00
     .240000000000D+01  .000000000000D+00 -.419095158577D-08  .600000000000D+01
     .388806000000D+06  .400000000000D+01
 9 14  8  7 14  0  0.0  .115707516670D-04  .738964445191D-11  .000000000000D+00
     .103000000000D+03  .370312500000D+02  .419624621907D-08 -.209288577860D+01
     .164844095707D-05  .388351385482D-03  .111479312181D-04  .518102283287D+04
     .396000000000D+06  .428408384323D-07 -.863446063000D+00 -.316649675369D-07
     .959869204074D+00  .159500000000D+03 -.280474167940D+01 -.757352975363D-08
    -.376087094108D-09  .100000000000D+01  .180400000000D+04  .000000000000D+00
     .685000000000D+01  .630000000000D+02  .372529029846D-08  .103000000000D+03
     .388806000000D+06  .400000000000D+01
10 14  8  7 14  0  0.0 -.136889051646D-03 -.159161572810D-11  .000000000000D+00
     .200000000000D+02 -.978125000000D+01  .531807866218D-08  .161491421294D+01
    -.623986124992D-06  .137276455062D-01  .626221299171D-05  .515360021210D+04
     .396000000000D+06 -.286847352982D-06 -.189539881017D+01 -.130385160446D-07
     .941518307022D+00  .252218750000D+03  .873006456475D+00 -.850606859761D-08
    -.242152943785D-09  .100000000000D+01  .180400000000D+04  .000000000000D+00
     .240000000000D+01  .000000000000D+00 -.279396772385D-08  .200000000000D+02
     .388806000000D+06  .400000000000D+01
11 14  8  7 14  0  0.0 -.511476304382D-03 -.295585778076D-11  .000000000000D+00
     .160000000000D+02 -.956250000000D+01  .581667085912D-08 -.206472422375D+01
    -.480562448502D-06  .152974888915D-01  .100582838058D-04  .515370961189D+04
     .396000000000D+06  .260770320892D-06  .300471837934D+01 -.167638063431D-07
     .891466455030D+00  .145531250000D+03  .131348159288D+01 -.835177645644D-08
     .384658879729D-09  .100000000000D+01  .180400000000D+04  .000000000000D+00
     .240000000000D+01  .000000000000D+00 -.121071934700D-07  .160000000000D+02
     .388806000000D+06  .400000000000D+01
12 14  8  7 14  0  0.0  .223325565457D-03  .261479726760D-11  .000000000000D+00
     .850000000000D+02 -.531562500000D+02  .432839458072D-08 -.267092505169D+01
    -.276044011116D-05  .509378162678D-02  .152178108692D-05  .515357268715D+04
     .396000000000D+06 -.372529029846D-07  .127478966989D+01 -.135973095894D-06
     .987830699022D+00  .362125000000D+03  .497110527906D+00 -.827391607039D-08
    -.159649507186D-09  .100000000000D+01  .180400000000D+04  .000000000000D+00
     .240000000000D+01  .000000000000D+00 -.121071934700D-07  .850000000000D+02
     .388806000000D+06  .400000000000D+01
13 14  8  7 14  0  0.0 -.285739079118D-04 -.386535248253D-11  .000000000000D+00
     .460000000000D+02  .428750000000D+02  .392159192147D-08  .110939403609D+00
     .216253101826D-05  .529272970743D-02  .108536332846D-04  .515355870438D+04
     .396000000000D+06  .335276126862D-07 -.752546256195D+00 -.633299350739D-07
     .976824750843D+00  .177000000000D+03  .232891313951D+01 -.774996567432D-08
    -.259296515026D-09  .100000000000D+01  .180400000000D+04  .000000000000D+00
     .240000000000D+01  .000000000000D+00 -.111758708954D-07  .460000000000D+02
     .388806000000D+06  .400000000000D+01
14 14  8  7 14  0  0.0  .147060956806D-03 -.363797880709D-11  .000000000000D+00
     .620000000000D+02  .393437500000D+02  .410017078857D-08  .468681240032D+00
     .192224979401D-05  .783330737613D-02  .118929892778D-04  .515370328331D+04
     .396000000000D+06 -.208616256714D-06 -.784911975740D+00  .223517417908D-07
     .969340905214D+00  .154968750000D+03 -.199089188937D+01 -.782532595624D-08
    -.384301721995D-09  .100000000000D+01  .180400000000D+04  .000000000000D+00
     .340000000000D+01  .000000000000D+00 -.884756445885D-08  .620000000000D+02
     .388806000000D+06  .400000000000D+01
15 14  8  7 14  0  0.0 -.195514410734D-03 -.216004991671D-11  .000000000000D+00
     .700000000000D+02  .262187500000D+02  .491841915761D-08 -.144732400160D+00
     .143237411976D-05  .640115502756D-02  .112112611532D-04  .515374164009D+04
     .396000000000D+06  .856816768646D-07 -.899285943806D+00 -.111758708954D-07
     .935840060718D+00  .148468750000D+03  .270620722862D+00 -.824034324337D-08
    -.427517807833D-09  .100000000000D+01  .180400000000D+04  .000000000000D+00
     .240000000000D+01  .000000000000D+00 -.102445483208D-07  .700000000000D+02
     .388806000000D+06  .400000000000D+01
